[{"OBJECT_NAME":"FLOCK 4Q-7","OBJECT_ID":"2023-174BQ","EPOCH":"2026-03-09T17:57:36.041184","MEAN_MOTION":15.49240938,"ECCENTRICITY":0.00076673,"INCLINATION":97.3927,"RA_OF_ASC_NODE":157.3307,"ARG_OF_PERICENTER":138.9207,"MEAN_ANOMALY":221.2623,"EPHEMERIS_TYPE":0,"CLASSIFICATION_TYPE":"U","NORAD_CAT_ID":58318,"ELEMENT_SET_NO":999,"REV_AT_EPOCH":13032,"BSTAR":0.000616551,"MEAN_MOTION_DOT":0.00033682,"MEAN_MOTION_DDOT":0},{"OBJECT_NAME":"SITRO-AIS 40","OBJECT_ID":"2024-199AT","EPOCH":"2026-03-09T22:35:37.656384","MEAN_MOTION":15.51458954,"ECCENTRICITY":0.0006478,"INCLINATION":97.3071,"RA_OF_ASC_NODE":303.3931,"ARG_OF_PERICENTER":301.7881,"MEAN_ANOMALY":58.274,"EPHEMERIS_TYPE":0,"CLASSIFICATION_TYPE":"U","NORAD_CAT_ID":61776,"ELEMENT_SET_NO":999,"REV_AT_EPOCH":12219,"BSTAR":0.00081572905,"MEAN_MOTION_DOT":0.00048299,"MEAN_MOTION_DDOT":0}]
